GSAT0222 (GALILEO 26)   
1 43565U 18060B   23020.13765052 -.00000061  00000+0  00000+0 0  9990
2 43565  57.2430  15.3267 0005281 290.6348  69.3260  1.70475524 28009
GSAT0219 (GALILEO 23)   
1 43566U 18060C   23020.94476489 -.00000064  00000+0  00000+0 0  9996
2 43566  57.2436  15.3069 0004951 291.6778  68.2833  1.70475566 27994
GSAT0220 (GALILEO 24)   
1 43567U 18060D   23019.40530414 -.00000058  00000+0  00000+0 0  9998
2 43567  57.2428  15.3493 0005010 285.7033  74.2620  1.70475312 27958
BEIDOU-3 M13            
1 43622U 18072A   23022.02192506 -.00000014  00000+0  00000+0 0  9993
2 43622  55.6163 104.0164 0006187 277.5953  79.5621  1.86231399 29510
BEIDOU-3 M14            
1 43623U 18072B   23022.42549247 -.00000013  00000+0  00000+0 0  9995
2 43623  55.6172 103.9954 0003685 300.9417  57.0269  1.86231420 29527
GPS BIII-1              
1 43873U 18109A   23020.65861372  .00000003  00000+0  00000+0 0  9990
2 43873  55.1353 141.3197 0023125 189.6441 243.5061  2.00557942 30087
METEOR-M2 2             
1 44387U 19038A   23022.41930732  .00000141  00000+0  80964-4 0  9991
2 44387  98.7544 346.7805 0001847  37.2389 322.8916 14.23743547184565
GPS BIII-2              
1 44506U 19056A   23020.43981456 -.00000058  00000+0  00000+0 0  9999
2 44506  55.7643  20.4300 0029849 186.5223 349.4152  2.00560595 25129
BEIDOU-3 M23            
1 44542U 19061A   23019.58670958  .00000118  00000+0  00000+0 0  9997
2 44542  54.5301 224.7757 0008713   3.1046 356.9638  1.86231337 22611
BEIDOU-3 M24            
1 44543U 19061B   23021.06438221  .00000097  00000+0  00000+0 0  9995
2 44543  54.5263 224.6956 0005806 358.9278 183.4313  1.86231850 22632
BEIDOU-3 M21            
1 44793U 19078A   23022.24379639 -.00000086  00000+0  10000-3 0  9992
2 44793  54.8823 343.0780 0006454   2.9754  82.6823  1.86232180 21520
BEIDOU-3 M22            
1 44794U 19078B   23021.44904248 -.00000084  00000+0  00000+0 0  9997
2 44794  54.8562 343.0923 0004840 353.0409 191.8207  1.86232724 21505
ELEKTRO-L 3             
1 44903U 19095A   23022.11318674 -.00000096  00000+0  00000+0 0  9998
2 44903   0.0581 135.8940 0000856 131.5059 330.5106  1.00270854 11242
GPS BIII-3              
1 45854U 20041A   23020.46627315 -.00000025  00000+0  00000+0 0  9990
2 45854  55.6927  77.7004 0029959 185.4041 310.8930  2.00566710 19094
GPS BIII-4              
1 46826U 20078A   23021.04309674  .00000054  00000+0  00000+0 0  9991
2 46826  54.4319 261.2610 0025854 188.7190 340.3209  2.00564395 16563
GSAT0223 (GALILEO 27)   
1 49809U 21116A   23019.55833735 -.00000059  00000+0  00000+0 0  9998
2 49809  57.2345  15.2424 0002583 248.4301 295.6136  1.70475502  6960
GSAT0224 (GALILEO 28)   
1 49810U 21116B   23022.30704152 -.00000071  00000+0  00000+0 0  9991
2 49810  57.2372  15.1656 0002080 256.9081 286.5469  1.70475440  7026
